[{"OBJECT_NAME":"OBJECT B","OBJECT_ID":"2024-205B","EPOCH":"2026-03-09T23:46:05.115936","MEAN_MOTION":15.28158697,"ECCENTRICITY":0.00105957,"INCLINATION":97.4192,"RA_OF_ASC_NODE":146.9311,"ARG_OF_PERICENTER":34.0947,"MEAN_ANOMALY":326.0972,"EPHEMERIS_TYPE":0,"CLASSIFICATION_TYPE":"U","NORAD_CAT_ID":61895,"ELEMENT_SET_NO":999,"REV_AT_EPOCH":7352,"BSTAR":0.00054154807,"MEAN_MOTION_DOT":0.00014827,"MEAN_MOTION_DDOT":0},{"OBJECT_NAME":"STARLINK-36362","OBJECT_ID":"2026-005W","EPOCH":"2026-03-09T22:00:01.999584","MEAN_MOTION":15.28371267,"ECCENTRICITY":0.00025187,"INCLINATION":42.9994,"RA_OF_ASC_NODE":236.7845,"ARG_OF_PERICENTER":281.2971,"MEAN_ANOMALY":317.6523,"EPHEMERIS_TYPE":0,"CLASSIFICATION_TYPE":"U","NORAD_CAT_ID":67424,"ELEMENT_SET_NO":999,"REV_AT_EPOCH":590,"BSTAR":0.0027312751,"MEAN_MOTION_DOT":0.0007755,"MEAN_MOTION_DDOT":0}]
